{
  "norad_id": 63684,
  "name": "STARLINK-33853",
  "history": [
    {
      "epoch": "2026-03-28T20:20:06.979200Z",
      "apogee_km": 483.72372022879335,
      "perigee_km": 482.0638996552516,
      "latitude_deg": 5.006343855265553e-05,
      "longitude_deg": 151.10079753792868,
      "height_km": 482.6184919734823,
      "semi_major_axis_km": 6861.030809942022,
      "eccentricity": 0.00012096,
      "inclination_deg": 43.0003,
      "raan_deg": 282.3917,
      "arg_perigee_deg": 273.5846,
      "mean_anomaly_deg": 86.4868,
      "mean_motion_rev_day": 15.27631861
    },
    {
      "epoch": "2026-03-29T21:26:36.506976Z",
      "apogee_km": 483.98892687314765,
      "perigee_km": 482.02663946516077,
      "latitude_deg": -2.013645701171906e-05,
      "longitude_deg": 127.53783344746925,
      "height_km": 483.0128459056995,
      "semi_major_axis_km": 6861.144783169154,
      "eccentricity": 0.000143,
      "inclination_deg": 43.0011,
      "raan_deg": 276.483,
      "arg_perigee_deg": 256.546,
      "mean_anomaly_deg": 103.5232,
      "mean_motion_rev_day": 15.27593797
    },
    {
      "epoch": "2026-03-30T05:17:23.770464Z",
      "apogee_km": 483.7386284953609,
      "perigee_km": 482.33538118788965,
      "latitude_deg": -4.562035712256893e-08,
      "longitude_deg": 7.671381234015135,
      "height_km": 482.7436941136259,
      "semi_major_axis_km": 6861.174004841625,
      "eccentricity": 0.00010226,
      "inclination_deg": 43.0011,
      "raan_deg": 274.6357,
      "arg_perigee_deg": 275.7109,
      "mean_anomaly_deg": 84.3626,
      "mean_motion_rev_day": 15.27584038
    },
    {
      "epoch": "2026-03-30T13:08:10.815360Z",
      "apogee_km": 484.16230261572946,
      "perigee_km": 482.0029395765787,
      "latitude_deg": -2.8958487396377574e-05,
      "longitude_deg": -112.19400987605121,
      "height_km": 482.90346568132117,
      "semi_major_axis_km": 6861.219621096154,
      "eccentricity": 0.00015736,
      "inclination_deg": 42.9996,
      "raan_deg": 272.7886,
      "arg_perigee_deg": 267.6618,
      "mean_anomaly_deg": 92.4053,
      "mean_motion_rev_day": 15.27568804
    }
  ]
}